CCSDS_OMM_VERS = 2.0
CREATION_DATE  = 
ORIGINATOR     = 

OBJECT_NAME    = SOYUZ-MS 28
OBJECT_ID      = 2025-275A
CENTER_NAME    = EARTH
REF_FRAME      = TEME
TIME_SYSTEM    = UTC
MEAN_ELEMENT_THEORY = SGP/SGP4

EPOCH          = 2025-12-31T13:33:45.664704
MEAN_MOTION    = 15.48977139
ECCENTRICITY   = .00075032
INCLINATION    = 51.6330
RA_OF_ASC_NODE = 49.2494
ARG_OF_PERICENTER = 324.2875
MEAN_ANOMALY   = 35.7611

EPHEMERIS_TYPE = 0
CLASSIFICATION_TYPE = U
NORAD_CAT_ID   = 66664
ELEMENT_SET_NO = 999
REV_AT_EPOCH   = 128
BSTAR          = .28664639E-3
MEAN_MOTION_DOT = .15372E-3
MEAN_MOTION_DDOT = 0

CCSDS_OMM_VERS = 2.0
CREATION_DATE  = 
ORIGINATOR     = 

OBJECT_NAME    = 1998-067XS
OBJECT_ID      = 1998-067XS
CENTER_NAME    = EARTH
REF_FRAME      = TEME
TIME_SYSTEM    = UTC
MEAN_ELEMENT_THEORY = SGP/SGP4

EPOCH          = 2025-12-31T13:01:02.368128
MEAN_MOTION    = 15.51678119
ECCENTRICITY   = .0002533
INCLINATION    = 51.6322
RA_OF_ASC_NODE = 49.0985
ARG_OF_PERICENTER = 301.5509
MEAN_ANOMALY   = 58.5233

EPHEMERIS_TYPE = 0
CLASSIFICATION_TYPE = U
NORAD_CAT_ID   = 66906
ELEMENT_SET_NO = 999
REV_AT_EPOCH   = 453
BSTAR          = .63803108E-3
MEAN_MOTION_DOT = .38378E-3
MEAN_MOTION_DDOT = 0

CCSDS_OMM_VERS = 2.0
CREATION_DATE  = 
ORIGINATOR     = 

OBJECT_NAME    = 1998-067XT
OBJECT_ID      = 1998-067XT
CENTER_NAME    = EARTH
REF_FRAME      = TEME
TIME_SYSTEM    = UTC
MEAN_ELEMENT_THEORY = SGP/SGP4

EPOCH          = 2025-12-31T12:29:58.009056
MEAN_MOTION    = 15.54068826
ECCENTRICITY   = .00038383
INCLINATION    = 51.6318
RA_OF_ASC_NODE = 48.9544
ARG_OF_PERICENTER = 343.4521
MEAN_ANOMALY   = 16.6344

EPHEMERIS_TYPE = 0
CLASSIFICATION_TYPE = U
NORAD_CAT_ID   = 66907
ELEMENT_SET_NO = 999
REV_AT_EPOCH   = 453
BSTAR          = .14362804E-2
MEAN_MOTION_DOT = .95558E-3
MEAN_MOTION_DDOT = 0

CCSDS_OMM_VERS = 2.0
CREATION_DATE  = 
ORIGINATOR     = 

OBJECT_NAME    = 1998-067XU
OBJECT_ID      = 1998-067XU
CENTER_NAME    = EARTH
REF_FRAME      = TEME
TIME_SYSTEM    = UTC
MEAN_ELEMENT_THEORY = SGP/SGP4

EPOCH          = 2025-12-31T12:28:19.564896
MEAN_MOTION    = 15.54031854
ECCENTRICITY   = .00039174
INCLINATION    = 51.6315
RA_OF_ASC_NODE = 48.9463
ARG_OF_PERICENTER = 338.9908
MEAN_ANOMALY   = 21.0921

EPHEMERIS_TYPE = 0
CLASSIFICATION_TYPE = U
NORAD_CAT_ID   = 66908
ELEMENT_SET_NO = 999
REV_AT_EPOCH   = 453
BSTAR          = .13631661E-2
MEAN_MOTION_DOT = .9049E-3
MEAN_MOTION_DDOT = 0

CCSDS_OMM_VERS = 2.0
CREATION_DATE  = 
ORIGINATOR     = 

OBJECT_NAME    = SILVERSAT
OBJECT_ID      = 1998-067XV
CENTER_NAME    = EARTH
REF_FRAME      = TEME
TIME_SYSTEM    = UTC
MEAN_ELEMENT_THEORY = SGP/SGP4

EPOCH          = 2025-12-31T12:23:52.679616
MEAN_MOTION    = 15.54503968
ECCENTRICITY   = .00039831
INCLINATION    = 51.6312
RA_OF_ASC_NODE = 48.9255
ARG_OF_PERICENTER = 346.7653
MEAN_ANOMALY   = 13.3233

EPHEMERIS_TYPE = 0
CLASSIFICATION_TYPE = U
NORAD_CAT_ID   = 66909
ELEMENT_SET_NO = 999
REV_AT_EPOCH   = 453
BSTAR          = .15686506E-2
MEAN_MOTION_DOT = .106232E-2
MEAN_MOTION_DDOT = 0

CCSDS_OMM_VERS = 2.0
CREATION_DATE  = 
ORIGINATOR     = 

OBJECT_NAME    = 1998-067XW
OBJECT_ID      = 1998-067XW
CENTER_NAME    = EARTH
REF_FRAME      = TEME
TIME_SYSTEM    = UTC
MEAN_ELEMENT_THEORY = SGP/SGP4

EPOCH          = 2025-12-31T09:17:05.980128
MEAN_MOTION    = 15.54288814
ECCENTRICITY   = .00034471
INCLINATION    = 51.6314
RA_OF_ASC_NODE = 49.5599
ARG_OF_PERICENTER = 316.7976
MEAN_ANOMALY   = 43.2743

EPHEMERIS_TYPE = 0
CLASSIFICATION_TYPE = U
NORAD_CAT_ID   = 66910
ELEMENT_SET_NO = 999
REV_AT_EPOCH   = 451
BSTAR          = .13891514E-2
MEAN_MOTION_DOT = .93121E-3
MEAN_MOTION_DDOT = 0

CCSDS_OMM_VERS = 2.0
CREATION_DATE  = 
ORIGINATOR     = 

OBJECT_NAME    = 1998-067XX
OBJECT_ID      = 1998-067XX
CENTER_NAME    = EARTH
REF_FRAME      = TEME
TIME_SYSTEM    = UTC
MEAN_ELEMENT_THEORY = SGP/SGP4

EPOCH          = 2025-12-31T09:07:57.753984
MEAN_MOTION    = 15.55033456
ECCENTRICITY   = .00032046
INCLINATION    = 51.6318
RA_OF_ASC_NODE = 49.5181
ARG_OF_PERICENTER = 330.0387
MEAN_ANOMALY   = 30.0420

EPHEMERIS_TYPE = 0
CLASSIFICATION_TYPE = U
NORAD_CAT_ID   = 66911
ELEMENT_SET_NO = 999
REV_AT_EPOCH   = 450
BSTAR          = .16210746E-2
MEAN_MOTION_DOT = .112028E-2
MEAN_MOTION_DDOT = 0

CCSDS_OMM_VERS = 2.0
CREATION_DATE  = 
ORIGINATOR     = 

OBJECT_NAME    = 1998-067XY
OBJECT_ID      = 1998-067XY
CENTER_NAME    = EARTH
REF_FRAME      = TEME
TIME_SYSTEM    = UTC
MEAN_ELEMENT_THEORY = SGP/SGP4

EPOCH          = 2025-12-31T09:35:56.820480
MEAN_MOTION    = 15.53164396
ECCENTRICITY   = .00037862
INCLINATION    = 51.6325
RA_OF_ASC_NODE = 49.6480
ARG_OF_PERICENTER = 329.9609
MEAN_ANOMALY   = 30.1163

EPHEMERIS_TYPE = 0
CLASSIFICATION_TYPE = U
NORAD_CAT_ID   = 66912
ELEMENT_SET_NO = 999
REV_AT_EPOCH   = 450
BSTAR          = .11066181E-2
MEAN_MOTION_DOT = .70905E-3
MEAN_MOTION_DDOT = 0

